{"type":"FeatureCollection","license":"ODbL-1.0, © OpenStreetMap contributors","osm_base":"2026-07-15T15:22:01Z","bbox":"47.476,19.022,47.544999999999995,19.078000000000003","features":[
{"type":"Feature","properties":{"id":"relation/14244671","natural":"water"},"geometry":{"type":"Polygon","coordinates":[[[19.0770651,47.5190671],[19.0770269,47.5190744],[19.0770123,47.519068],[19.0769932,47.5190486],[19.0769703,47.5190448],[19.0769468,47.5190418],[19.0769271,47.5190297],[19.0769156,47.5190134],[19.0769016,47.5190035],[19.0768787,47.5189954],[19.0768654,47.5189838],[19.0768418,47.5189679],[19.0768272,47.5189469],[19.076817,47.5189198],[19.0768164,47.5189],[19.0768177,47.5188837],[19.0768291,47.5188691],[19.0768539,47.5188511],[19.0768743,47.5188425],[19.0768972,47.518824],[19.0769773,47.5187484],[19.0769983,47.5187381],[19.0770116,47.5187244],[19.0770186,47.5187068],[19.0770136,47.518693],[19.0770212,47.5186866],[19.077053,47.5186771],[19.0771438,47.5186927],[19.0771663,47.5187225],[19.0772059,47.5187292],[19.077267,47.5187158],[19.0773282,47.5187061],[19.0773704,47.5187],[19.0774108,47.5186985],[19.0774269,47.5186819],[19.0774657,47.5186918],[19.0775153,47.5187159],[19.077528,47.5187464],[19.0775048,47.5187842],[19.077473,47.518779],[19.077443,47.5187444],[19.0774001,47.5187176],[19.0773641,47.518714],[19.0773291,47.5187176],[19.0772967,47.5187304],[19.0772544,47.5187401],[19.0771888,47.518751],[19.077142,47.5187371],[19.077106,47.5187164],[19.0770781,47.5187049],[19.0770557,47.518717],[19.0770449,47.5187334],[19.0770422,47.5187419],[19.0769918,47.5187802],[19.0769882,47.5187893],[19.07699,47.518799],[19.0770062,47.518813],[19.0770395,47.5188306],[19.0770799,47.5188488],[19.0771294,47.5188585],[19.0772337,47.5188628],[19.077286,47.5188709],[19.0773283,47.5189438],[19.0773162,47.5189764],[19.0772686,47.519023],[19.0772519,47.5190285],[19.0770902,47.5190629],[19.0770651,47.5190671]],[[19.0772355,47.518884],[19.0771231,47.5188798],[19.0770808,47.5188725],[19.0770404,47.5188616],[19.0769765,47.51883],[19.0769558,47.5188203],[19.0769432,47.5188276],[19.0769118,47.5188549],[19.0768839,47.5188652],[19.0768632,47.5188792],[19.0768533,47.5188974],[19.0768507,47.5189141],[19.0768651,47.5189459],[19.0768903,47.5189702],[19.0769249,47.518986],[19.0769433,47.5189951],[19.0769546,47.5190103],[19.0769847,47.5190237],[19.0770333,47.5190413],[19.0770625,47.5190501],[19.0771365,47.519042],[19.0771848,47.519023],[19.0772653,47.5189986],[19.0772787,47.5189506],[19.0772355,47.518884]]]}},
{"type":"Feature","properties":{"id":"relation/14618584","natural":"water","water":"basin"},"geometry":{"type":"Polygon","coordinates":[[[19.0260219,47.4785722],[19.0259206,47.4784174],[19.0260965,47.4783648],[19.0261978,47.4785196],[19.0260219,47.4785722]],[[19.0260592,47.478549],[19.0261115,47.4785317],[19.0261102,47.4785045],[19.0261155,47.478481],[19.0261055,47.4784651],[19.0260679,47.4784592],[19.0260572,47.4784511],[19.0260317,47.4784406],[19.0260109,47.4784461],[19.0260036,47.478456],[19.0260176,47.4784855],[19.0260592,47.478549]]]}},
{"type":"Feature","properties":{"id":"relation/20594985","natural":"water","water":"pond"},"geometry":{"type":"Polygon","coordinates":[[[19.045239,47.4871242],[19.0451968,47.4870992],[19.0451696,47.487066],[19.0451607,47.4870286],[19.0451712,47.4869913],[19.0451958,47.486962],[19.0452325,47.486939],[19.0452777,47.4869247],[19.0453273,47.4869204],[19.0454461,47.4869225],[19.0454694,47.4871296],[19.0453474,47.4871389],[19.0452913,47.4871379],[19.045239,47.4871242]]]}},
{"type":"Feature","properties":{"id":"relation/30036","name":"Duna","name:en":"Danube","natural":"water","water":"river"},"geometry":{"type":"Polygon","coordinates":[[[19.0137362,47.387287],[19.0148519,47.3875225],[19.0193156,47.3884646],[19.0286439,47.3911073],[19.0317159,47.3927859],[19.0360442,47.3962436],[19.0405922,47.4005227],[19.0418902,47.4023149],[19.0435,47.405],[19.04575,47.4075],[19.0462086,47.4094366],[19.0465834,47.4110192],[19.0473098,47.4130384],[19.0474659,47.4138144],[19.0476641,47.4143629],[19.0477481,47.4145945],[19.0478142,47.4149601],[19.0480003,47.415212],[19.0480663,47.4156914],[19.0481744,47.4162358],[19.0482058,47.416815],[19.0482884,47.4178567],[19.0482104,47.417942],[19.0482224,47.4180151],[19.0483065,47.4180557],[19.0484385,47.4188357],[19.0484566,47.4194329],[19.0485399,47.4203331],[19.0485,47.42175],[19.0485596,47.4220679],[19.0488492,47.4236124],[19.04925,47.42575],[19.0495855,47.4269198],[19.0502697,47.4283145],[19.0511886,47.4299881],[19.0518651,47.4320243],[19.0526757,47.4340427],[19.0527837,47.4344854],[19.0528918,47.4351758],[19.0531274,47.4358777],[19.0541613,47.4377804],[19.0547448,47.4383239],[19.0550297,47.4383603],[19.0564996,47.4382714],[19.0567169,47.438304],[19.059332,47.4382151],[19.0594893,47.4383361],[19.0595732,47.439355],[19.0550524,47.4395569],[19.0546205,47.4388185],[19.0542813,47.4384154],[19.05367,47.4378633],[19.0535578,47.4378849],[19.0536187,47.4384193],[19.0538504,47.4393263],[19.0541405,47.4399755],[19.0544846,47.4404473],[19.0548425,47.4408694],[19.0557288,47.4417752],[19.0565516,47.4425174],[19.0570737,47.4428145],[19.0577461,47.4430494],[19.0584867,47.4431689],[19.0610096,47.4431158],[19.0632617,47.44303],[19.066108,47.4428919],[19.0691825,47.4427598],[19.0692583,47.4428484],[19.0687258,47.4437074],[19.0644792,47.4438784],[19.0644105,47.4443182],[19.0590572,47.4445518],[19.0587223,47.4446397],[19.0585253,47.4448973],[19.05875,47.44575],[19.0591234,47.4460925],[19.059703,47.4462676],[19.0654915,47.4463917],[19.0664901,47.4464314],[19.0664384,47.4470992],[19.0667514,47.4471371],[19.0669677,47.4471652],[19.066949,47.4473181],[19.0669405,47.4474319],[19.0649708,47.4473154],[19.064957,47.447379],[19.0636901,47.4473254],[19.0582765,47.4472321],[19.058,47.4465],[19.0577962,47.4457145],[19.0576901,47.4457174],[19.0573766,47.445161],[19.0555912,47.4427364],[19.0552689,47.4421038],[19.0545257,47.4413212],[19.054397,47.4412309],[19.0542907,47.4412968],[19.0544299,47.4422476],[19.0550722,47.4451],[19.0555,47.447],[19.0561071,47.4483966],[19.0566826,47.4492327],[19.0575232,47.4506157],[19.06175,47.45625],[19.06375,47.4585],[19.065333,47.4597276],[19.0651548,47.4599687],[19.0651466,47.459996],[19.065152,47.4600304],[19.0652351,47.4601283],[19.0657371,47.4608189],[19.0658176,47.4609096],[19.0659484,47.460977],[19.0665071,47.4619149],[19.0689142,47.4650689],[19.0698503,47.4679102],[19.0698741,47.4683867],[19.0699029,47.4689622],[19.0698777,47.4696466],[19.0697809,47.4707105],[19.0696251,47.4715798],[19.0695433,47.4720039],[19.0693789,47.4726376],[19.0690947,47.4735631],[19.068677,47.4746429],[19.0674407,47.4772225],[19.0668341,47.4781244],[19.0654961,47.4796592],[19.0651909,47.4799659],[19.06375,47.48125],[19.0636817,47.4812973],[19.0618828,47.4825021],[19.0596271,47.4840519],[19.058375,47.4849178],[19.0582095,47.4850434],[19.0582228,47.485051],[19.0581296,47.4851253],[19.0581163,47.4851177],[19.0577535,47.4854231],[19.0567544,47.4862751],[19.056777,47.4862981],[19.0565761,47.48644],[19.0556882,47.4871351],[19.0547448,47.4878075],[19.0530289,47.4890573],[19.0521877,47.4898229],[19.0514717,47.4906253],[19.0499724,47.4926875],[19.0499376,47.4926938],[19.0496669,47.4930456],[19.0488876,47.4941165],[19.0487931,47.4942599],[19.0484441,47.4948081],[19.048,47.4955],[19.0476637,47.4960951],[19.0465841,47.4981843],[19.0465456,47.498199],[19.0465333,47.4982262],[19.0465548,47.4982515],[19.0463316,47.4987575],[19.046053,47.4992233],[19.0459236,47.4995396],[19.0455985,47.5007369],[19.0455681,47.5007519],[19.0455616,47.5007782],[19.0455844,47.5007992],[19.0454675,47.5011644],[19.0454871,47.50118],[19.0455089,47.501184],[19.0454911,47.5012463],[19.0454715,47.5012429],[19.0454491,47.5012512],[19.0452056,47.5020681],[19.0452221,47.5020704],[19.0452141,47.5021034],[19.0451973,47.5021011],[19.045,47.50275],[19.0448142,47.5034893],[19.0447351,47.5038776],[19.0446622,47.504276],[19.0446298,47.5045603],[19.044617,47.5047683],[19.0446025,47.5053264],[19.0446082,47.5055351],[19.0398163,47.5054519],[19.0398793,47.5047172],[19.0399504,47.5040676],[19.0399,47.5040648],[19.0399067,47.5040096],[19.0399571,47.5040124],[19.0400912,47.5030847],[19.0404144,47.5015173],[19.0406008,47.5008631],[19.0406335,47.5005616],[19.0406665,47.500566],[19.0408348,47.4999902],[19.0408001,47.4999855],[19.0410407,47.4993455],[19.0413696,47.4985536],[19.0426083,47.4962284],[19.0434924,47.4948018],[19.044694,47.4933346],[19.0455319,47.4923159],[19.0456932,47.4921185],[19.0460302,47.4917407],[19.0465954,47.4911687],[19.0464268,47.4911772],[19.046489,47.4911065],[19.0466475,47.4910937],[19.0474652,47.4902794],[19.0494946,47.4884384],[19.0524926,47.4856254],[19.0525864,47.4855465],[19.0532747,47.4849555],[19.0577965,47.4810136],[19.0595853,47.4794479],[19.0605641,47.4785789],[19.0619288,47.4772621],[19.062491,47.4765436],[19.0630188,47.4758408],[19.0634304,47.4751195],[19.0637742,47.4744021],[19.064375,47.4726384],[19.0647103,47.471435],[19.0647355,47.4713446],[19.0649419,47.4699106],[19.0650009,47.4690358],[19.0649349,47.4682563],[19.064907,47.4680812],[19.0646008,47.4669408],[19.0645616,47.46676],[19.0644708,47.46661],[19.0644003,47.4664601],[19.0642692,47.4662182],[19.0641962,47.4660657],[19.0641835,47.4660044],[19.0641936,47.4659499],[19.0641785,47.4658937],[19.0641281,47.465846],[19.0640752,47.4658102],[19.0640097,47.465754],[19.0639971,47.4657028],[19.0640147,47.4656722],[19.0640231,47.4656527],[19.0640374,47.4655836],[19.0640147,47.4655052],[19.0639945,47.4654575],[19.0639567,47.4653945],[19.0639063,47.4653485],[19.0638358,47.4652974],[19.063757,47.4652582],[19.0636921,47.465173],[19.062748,47.4640438],[19.061253,47.4622233],[19.0597573,47.4602678],[19.0591755,47.45969],[19.0589887,47.4594504],[19.0586166,47.4591599],[19.0584927,47.4591047],[19.0584213,47.45909],[19.058331,47.4590908],[19.0582751,47.4590917],[19.058214,47.4591135],[19.0581756,47.459148],[19.0581466,47.4591769],[19.0581316,47.4592147],[19.0581353,47.4592519],[19.058164,47.4592869],[19.0582462,47.4593558],[19.0583192,47.4594444],[19.0583621,47.4595501],[19.0584024,47.4596608],[19.0584616,47.4597545],[19.0585246,47.45987],[19.0586051,47.4599868],[19.0586557,47.4600685],[19.0586935,47.4601256],[19.0587225,47.4601728],[19.0587779,47.4602712],[19.0588258,47.4603339],[19.0588964,47.4604178],[19.0589543,47.4604702],[19.0590879,47.4605865],[19.0591433,47.4606495],[19.0591882,47.4607079],[19.0593601,47.4609903],[19.0595187,47.4612746],[19.0597427,47.4616137],[19.059939,47.4619114],[19.0603519,47.4624566],[19.0604283,47.4625147],[19.0604966,47.4626574],[19.0605621,47.4627426],[19.0606378,47.4628874],[19.0607285,47.4629931],[19.0608167,47.4631294],[19.060862,47.4632146],[19.0609754,47.4633168],[19.061046,47.4634224],[19.0610939,47.4635195],[19.0612401,47.4636644],[19.0615292,47.4640229],[19.0617407,47.464291],[19.0618974,47.4645074],[19.0620235,47.4646762],[19.0621935,47.4648895],[19.0623563,47.4651151],[19.0624147,47.4651951],[19.0624551,47.4652605],[19.0624754,47.465315],[19.0624385,47.4653458],[19.0624621,47.4654679],[19.0624995,47.465546],[19.0626021,47.4656799],[19.0626965,47.4657863],[19.0627844,47.4658838],[19.0628291,47.465948],[19.0628371,47.4659966],[19.062834,47.4660279],[19.0628268,47.4660708],[19.0628138,47.4661115],[19.0627858,47.4661554],[19.062738,47.4661935],[19.0626477,47.466237],[19.062459,47.4662629],[19.0623815,47.4662842],[19.0622797,47.466324],[19.0621727,47.4663372],[19.0620741,47.4663345],[19.0617559,47.4663613],[19.061085,47.4664841],[19.060476,47.4666114],[19.0603297,47.466639],[19.0602704,47.4666689],[19.0602251,47.4666753],[19.0601383,47.4666638],[19.0600455,47.46664],[19.0599568,47.4666039],[19.0598752,47.4665545],[19.0597968,47.4664806],[19.0597561,47.4663949],[19.0597186,47.4662939],[19.0597183,47.4661376],[19.0597013,47.4658686],[19.0597013,47.4658235],[19.0597131,47.4656901],[19.0596491,47.4655317],[19.0595968,47.4654219],[19.0595672,47.4652108],[19.0595811,47.4649555],[19.0595357,47.4647282],[19.0595251,47.4646025],[19.0594636,47.4645075],[19.0591913,47.463509],[19.0591206,47.463391],[19.0589362,47.4631085],[19.0589094,47.4630864],[19.0588772,47.463075],[19.0588412,47.4630648],[19.0587846,47.463057],[19.0587283,47.4630525],[19.0586809,47.4630536],[19.0585864,47.4630566],[19.0584865,47.4630802],[19.0583932,47.4630994],[19.0581301,47.4631468],[19.0580829,47.4631623],[19.0580278,47.4630271],[19.0580147,47.4629981],[19.0580853,47.4629634],[19.0581331,47.4629451],[19.0582035,47.4629208],[19.0582834,47.4629164],[19.0584,47.4629559],[19.0584381,47.4629573],[19.05866,47.4629261],[19.0587674,47.4629079],[19.0588186,47.4628856],[19.0588503,47.4628582],[19.0588668,47.4628111],[19.0588628,47.462782],[19.0586934,47.4623254],[19.0583799,47.4615339],[19.0583527,47.4614968],[19.0582298,47.4613295],[19.0580702,47.4608985],[19.0580416,47.4607572],[19.0580407,47.4605673],[19.0579782,47.460115],[19.0577456,47.4596494],[19.0576458,47.4594496],[19.0570708,47.4582436],[19.057028,47.458155],[19.0569891,47.4580933],[19.0570803,47.4580134],[19.057028,47.4579647],[19.0569674,47.4580168],[19.0569419,47.4578792],[19.0569033,47.4578076],[19.0568497,47.4576807],[19.0566305,47.457477],[19.0565472,47.457308],[19.0565279,47.4572153],[19.0564904,47.457131],[19.056396,47.4570219],[19.0563789,47.4568662],[19.0561976,47.4565712],[19.0560471,47.4564498],[19.055966,47.4563646],[19.0556899,47.4559929],[19.0556755,47.4559199],[19.0552242,47.4554069],[19.0548611,47.4549051],[19.0546743,47.4546789],[19.0542828,47.4542378],[19.0541642,47.454195],[19.0535473,47.4534918],[19.0531202,47.4527966],[19.0524441,47.4516922],[19.0521396,47.4512296],[19.0520526,47.4509275],[19.0520069,47.4508833],[19.0518865,47.450767],[19.0514515,47.4501868],[19.0512,47.4499258],[19.0510551,47.4497898],[19.0510507,47.4497736],[19.0510055,47.4496076],[19.0507506,47.4491122],[19.0507,47.4488481],[19.0506504,47.4486997],[19.0505502,47.4484868],[19.0505215,47.4484043],[19.050464,47.4482391],[19.0503834,47.4481348],[19.0503181,47.4479918],[19.0501059,47.4475267],[19.0500784,47.4474569],[19.0499418,47.4464446],[19.0496893,47.4445741],[19.0493203,47.4415962],[19.0490714,47.439843],[19.048625,47.437666],[19.0478869,47.4361217],[19.0479298,47.4360752],[19.0476981,47.4355411],[19.0476122,47.435454],[19.0469653,47.4341165],[19.0468457,47.4338898],[19.0453491,47.4316488],[19.0449491,47.4309728],[19.0446253,47.4306524],[19.044385,47.4305711],[19.0440373,47.4305581],[19.0440035,47.4305093],[19.0440331,47.4304376],[19.0442992,47.4302576],[19.0440073,47.4294447],[19.0438443,47.4293576],[19.042574,47.4261756],[19.0425826,47.4259259],[19.0424364,47.4254882],[19.0424166,47.425234],[19.0422993,47.4234637],[19.0424796,47.421228],[19.0427113,47.4177783],[19.0427027,47.4170349],[19.0424796,47.4162915],[19.0418028,47.414981],[19.0417675,47.4148294],[19.0417643,47.4146143],[19.041785,47.4145285],[19.0417395,47.4142653],[19.0417112,47.4141792],[19.0416021,47.4141552],[19.0415621,47.4139773],[19.0415043,47.4139672],[19.0414646,47.4139581],[19.0414597,47.413909],[19.0414806,47.4138671],[19.0413746,47.413482],[19.041368,47.4132757],[19.0411058,47.41289],[19.0410447,47.41244],[19.0409689,47.412111],[19.0408907,47.4117713],[19.0406532,47.4111208],[19.0401909,47.4100955],[19.040163,47.4100337],[19.040046,47.4096367],[19.0394808,47.4086675],[19.038722,47.4077588],[19.0381116,47.4069063],[19.0367047,47.4051486],[19.0358794,47.403927],[19.0354165,47.4032603],[19.0342484,47.4015781],[19.0333264,47.400271],[19.0332136,47.4001111],[19.0328408,47.3993879],[19.0323419,47.3984021],[19.0320809,47.3977011],[19.0317209,47.3973011],[19.0311732,47.396848],[19.0307985,47.3966326],[19.0304541,47.3963585],[19.0301669,47.3962087],[19.0276552,47.395049],[19.0259933,47.3944694],[19.0227801,47.393593],[19.0211168,47.393104],[19.0200954,47.3926332],[19.0200026,47.3924939],[19.0200109,47.3923764],[19.0199366,47.3923005],[19.0165383,47.3913955],[19.0162293,47.3913991],[19.0157071,47.3917218],[19.0153141,47.3923169],[19.01528,47.3927212],[19.0154238,47.3934742],[19.0157776,47.3945017],[19.0160748,47.3951703],[19.016237,47.39533],[19.0173398,47.3961634],[19.0188538,47.3975992],[19.0202703,47.3989542],[19.0208904,47.399494],[19.021288,47.4001083],[19.0225167,47.4013015],[19.0235171,47.4017931],[19.0239978,47.401883],[19.0247748,47.401865],[19.0253383,47.401974],[19.0267039,47.4026354],[19.0276137,47.4028969],[19.030047,47.4033967],[19.0334341,47.4040657],[19.0334938,47.4041606],[19.0333087,47.4045484],[19.0331559,47.4045903],[19.0324728,47.4044661],[19.032267,47.4043717],[19.0320633,47.4043602],[19.0319306,47.4042477],[19.0318338,47.4043032],[19.0317026,47.4042831],[19.0315731,47.4042839],[19.0308223,47.4041172],[19.0305839,47.4039444],[19.0286452,47.4035651],[19.0272075,47.4033949],[19.0269586,47.4034849],[19.0269246,47.4036214],[19.0270021,47.403732],[19.0278122,47.404164],[19.0283086,47.4044096],[19.0287845,47.4046664],[19.0295625,47.4050033],[19.030485,47.4052287],[19.0307252,47.4051883],[19.0310699,47.4051206],[19.0325346,47.4053793],[19.0326816,47.4054676],[19.0327884,47.4055727],[19.0327104,47.4059115],[19.0325716,47.4062508],[19.0324109,47.4063252],[19.0319266,47.4061762],[19.0315059,47.4061441],[19.0312184,47.4060878],[19.031034,47.406014],[19.0306505,47.4058518],[19.0298128,47.4055848],[19.0293305,47.4053453],[19.0289801,47.4052824],[19.0288152,47.4052253],[19.0286502,47.4052244],[19.0285924,47.4052026],[19.0285496,47.4051463],[19.0283176,47.4050002],[19.0281969,47.4049684],[19.0280682,47.4049021],[19.0280172,47.4049502],[19.0279864,47.4049439],[19.0279857,47.4048926],[19.0279247,47.404879],[19.027859,47.4048857],[19.0278261,47.4049203],[19.0277959,47.4049094],[19.0278154,47.4048813],[19.0277651,47.4048223],[19.0277182,47.4047587],[19.0275563,47.4044847],[19.0251106,47.4034372],[19.0248853,47.4032781],[19.0246658,47.4031231],[19.0244056,47.4029597],[19.024352,47.4029624],[19.0242018,47.4028916],[19.0241615,47.4028417],[19.0239759,47.4027571],[19.0234497,47.4025729],[19.0223022,47.4019977],[19.0215868,47.401572],[19.020881,47.4010911],[19.0197376,47.4000045],[19.0196434,47.3998488],[19.0195522,47.3998434],[19.0194851,47.3997962],[19.0194851,47.3997127],[19.019213,47.3994966],[19.0187198,47.3990736],[19.0167801,47.3974194],[19.0165669,47.3971718],[19.0165092,47.3971019],[19.0164435,47.3970937],[19.0164167,47.3970638],[19.0164126,47.3969993],[19.0162544,47.3968795],[19.0159178,47.3965409],[19.0155692,47.3962192],[19.0154975,47.3960165],[19.0154242,47.3957855],[19.0153143,47.3954878],[19.0151765,47.395206],[19.0151557,47.3951124],[19.0150966,47.3948646],[19.0149629,47.3942858],[19.0148952,47.3937236],[19.0147533,47.3930317],[19.0146719,47.3929276],[19.0146491,47.3928513],[19.0147206,47.3928429],[19.0147176,47.3928224],[19.0147155,47.3928028],[19.0147086,47.3927749],[19.0146464,47.3927751],[19.0146586,47.3926352],[19.0145846,47.3922705],[19.0145212,47.3914975],[19.0144902,47.39112],[19.0144212,47.3909738],[19.014143,47.3907899],[19.0137585,47.3907211],[19.0133572,47.3906493],[19.0130344,47.39062],[19.0095575,47.3903045],[19.0094824,47.3903176],[19.0094964,47.3903568],[19.0095363,47.3903943],[19.0094513,47.3905112],[19.0092281,47.390625],[19.0090881,47.3907366],[19.0091397,47.3907995],[19.0091193,47.3909099],[19.0088483,47.3911289],[19.0085656,47.3912811],[19.008273,47.3913848],[19.0078467,47.3915145],[19.0074182,47.3915186],[19.0072753,47.391535],[19.0071602,47.3916043],[19.0068367,47.3916125],[19.0057205,47.391368],[19.0053807,47.3913082],[19.0050854,47.391253],[19.0046124,47.3911376],[19.004274,47.3910368],[19.0039403,47.391019],[19.0034097,47.3908353],[19.0028937,47.3907438],[19.002512,47.3907146],[19.00232,47.3907243],[19.0020343,47.3906999],[19.0018709,47.390656],[19.001254,47.3905761],[19.0008704,47.3905018],[18.9997278,47.3903311],[18.9994034,47.3902678],[18.9992611,47.390175],[18.9991028,47.3901366],[18.9988641,47.3901168],[18.9986245,47.390174],[18.9981811,47.3901358],[18.9975857,47.3900074],[18.9966213,47.3898598],[18.9963525,47.389824],[18.9959834,47.3897646],[18.9958118,47.3897355],[18.9953987,47.3896883],[18.9952378,47.3896883],[18.994873,47.3896084],[18.9943097,47.3895067],[18.9940147,47.3894014],[18.9939074,47.3893687],[18.9931135,47.3892779],[18.9929002,47.3892526],[18.992754,47.3892162],[18.9926789,47.3891871],[18.992467,47.3890871],[18.992231,47.3889599],[18.9920379,47.3888909],[18.9917294,47.3887949],[18.9913861,47.3887913],[18.9908041,47.3887856],[18.9905895,47.3887929],[18.9902975,47.3887214],[18.9895631,47.3883984],[18.9889606,47.3881501],[18.9886327,47.3880377],[18.9884037,47.3879663],[18.9871998,47.387664],[18.9869462,47.3876046],[18.9867356,47.3875597],[18.9857723,47.3873294],[18.9831783,47.3867618],[18.9808532,47.3860925],[18.9794374,47.3856319],[18.9793161,47.3855924],[18.979224,47.3855624],[18.9773932,47.3849761],[18.9752776,47.3841086],[18.9736651,47.3833818],[18.9728466,47.3829962],[18.9721901,47.3826209],[18.9721027,47.3826324],[18.9721067,47.3826806],[18.9722965,47.382785],[18.971822,47.3833419],[18.9714859,47.3837757],[18.9714107,47.3837783],[18.9710825,47.3836471],[18.9711379,47.3834222],[18.9712367,47.3830956],[18.9712091,47.3829831],[18.9710628,47.3826859],[18.9711537,47.3825815],[18.971126,47.3825146],[18.9710272,47.3824128],[18.9712065,47.3823205],[18.9712802,47.3822522],[18.9720434,47.3826217],[18.9720597,47.3825464],[18.9710751,47.3820404],[18.9700549,47.3815129],[18.9696318,47.3813094],[18.9692545,47.3810847],[18.9675379,47.3798865],[18.9665711,47.3794455],[18.965555,47.379089],[18.9648376,47.3787045],[18.9646873,47.3785411],[18.9643172,47.3783631],[18.9640197,47.3780065],[18.9633704,47.3774676],[18.9628216,47.3770886],[18.9625901,47.3768066],[18.9623806,47.3766267],[18.9621237,47.3764014],[18.9620438,47.3763319],[18.9617852,47.3761072],[18.9616833,47.3760346],[18.9613158,47.3756422],[18.9605299,47.3749302],[18.9597826,47.374335],[18.9596787,47.3742522],[18.9653896,47.3716392],[18.9666953,47.3724864],[18.9674724,47.372995],[18.9688621,47.3740332],[18.9692205,47.3744544],[18.9699618,47.375449],[18.97098,47.3765396],[18.9721119,47.3774768],[18.9733176,47.3784673],[18.9757804,47.3798538],[18.9766435,47.3803341],[18.9768219,47.3803392],[18.9768219,47.3802557],[18.9767468,47.3801848],[18.9768916,47.3802139],[18.9770177,47.3802629],[18.9770982,47.3803592],[18.977294,47.3804954],[18.9779672,47.3807006],[18.9790213,47.3809277],[18.9791259,47.381013],[18.9790723,47.3811038],[18.9790992,47.3812071],[18.9794371,47.381309],[18.9799671,47.3814336],[18.9803195,47.3814761],[18.9804751,47.3814362],[18.9810975,47.3816226],[18.9812958,47.3815034],[18.9811859,47.3814398],[18.9808962,47.3813054],[18.9805877,47.3811565],[18.9804402,47.3811038],[18.9803705,47.3811038],[18.9802659,47.3810711],[18.9802659,47.3810094],[18.9802927,47.3809694],[18.9804295,47.380944],[18.9805394,47.3809967],[18.9806226,47.3810166],[18.9807031,47.3810021],[18.9807433,47.3809658],[18.9807782,47.3809295],[18.9808586,47.3809331],[18.9808479,47.3809894],[18.9808935,47.3810693],[18.9809981,47.3811474],[18.9811885,47.38126],[18.9812931,47.3813363],[18.9814997,47.3814507],[18.9816123,47.3814725],[18.9816391,47.3814344],[18.9816713,47.3814144],[18.9817652,47.381438],[18.9818457,47.381478],[18.9819422,47.3815052],[18.9820522,47.3814943],[18.9821354,47.3814816],[18.9824304,47.3815415],[18.9828059,47.3816142],[18.9831787,47.3816668],[18.9834684,47.3816977],[18.9838761,47.3817467],[18.9839968,47.3817722],[18.9842704,47.3817903],[18.9845654,47.3818575],[18.9849463,47.3819774],[18.9852574,47.38205],[18.985531,47.3821536],[18.9856812,47.3822135],[18.985877,47.3822734],[18.985936,47.382288],[18.9859468,47.3823243],[18.9859226,47.3823551],[18.985877,47.3824024],[18.9857483,47.3824078],[18.9856946,47.3823515],[18.9856249,47.3823134],[18.9854908,47.3822825],[18.9853674,47.3822407],[18.9851072,47.382179],[18.9849061,47.3821354],[18.9846674,47.3820973],[18.9845976,47.3820918],[18.9845145,47.3820809],[18.9844313,47.3820537],[18.9843723,47.3819992],[18.9842516,47.3819865],[18.9841551,47.3819574],[18.9840397,47.3819211],[18.9838815,47.3819011],[18.9834952,47.381843],[18.983278,47.381803],[18.9830741,47.3817812],[18.9826959,47.3817649],[18.9824921,47.3817595],[18.9823633,47.3817504],[18.9822668,47.3817304],[18.9822131,47.3816904],[18.9821085,47.3816632],[18.9820281,47.3816414],[18.9819288,47.3816323],[18.9818618,47.3816287],[18.9818752,47.3815942],[18.9818698,47.3815669],[18.9818242,47.3815579],[18.9817572,47.3815706],[18.9817518,47.3815996],[18.9817572,47.3816323],[18.9817518,47.3816632],[18.9817035,47.3816777],[18.9816391,47.3816723],[18.9814889,47.3816014],[18.9813897,47.3815615],[18.9812985,47.3815451],[18.9812207,47.381596],[18.9811885,47.3816469],[18.98132,47.3817776],[18.9816896,47.3819571],[18.9823848,47.3821954],[18.9830446,47.3824605],[18.9836561,47.3827318],[18.984257,47.3828618],[18.9853262,47.3830073],[18.9858395,47.3830435],[18.9860675,47.3830126],[18.9864859,47.3828746],[18.9872692,47.3829663],[18.9886504,47.3832668],[18.9887255,47.3833377],[18.988798,47.3834121],[18.9888838,47.3834466],[18.9891413,47.383512],[18.989616,47.383601],[18.990131,47.3836791],[18.9902866,47.3836682],[18.9904046,47.3837081],[18.9905468,47.3837427],[18.9906326,47.3837536],[18.9906996,47.3837536],[18.9907613,47.3837427],[18.9907908,47.3837045],[18.9907667,47.3836555],[18.9910135,47.3836991],[18.9910001,47.3837372],[18.9910242,47.3837681],[18.9910644,47.383799],[18.9924377,47.3842021],[18.9927381,47.3841604],[18.9931565,47.3841712],[18.9932558,47.3841949],[18.9933711,47.3842711],[18.9935589,47.3842784],[18.9937386,47.3842784],[18.9939344,47.3842403],[18.9949912,47.3844945],[18.9958066,47.3846725],[19.000522,47.3854891],[19.0011852,47.3853136],[19.0014429,47.3850416],[19.0018147,47.3851681],[19.0017533,47.3855111],[19.0019046,47.3858929],[19.0035571,47.386065],[19.004336,47.3861453],[19.0051782,47.3858148],[19.0051514,47.3856749],[19.0039551,47.3856749],[19.0037218,47.3854171],[19.0058649,47.3854298],[19.0061063,47.3855369],[19.0060902,47.3856895],[19.0057281,47.3857784],[19.0056208,47.385951],[19.0058997,47.3860617],[19.0066105,47.3863178],[19.0097889,47.3866008],[19.013344,47.3872042],[19.0137362,47.387287]],[[18.966836,47.3728541],[18.9667878,47.3728396],[18.9667448,47.3728432],[18.9667234,47.372885],[18.9667502,47.3729413],[18.9667958,47.3730049],[18.9668924,47.3730866],[18.9670104,47.3731938],[18.9671767,47.3733427],[18.9673376,47.3734899],[18.9675602,47.3736588],[18.9677212,47.3737732],[18.9679706,47.3739785],[18.9682335,47.3742237],[18.9684668,47.3743963],[18.9687377,47.3746215],[18.9689684,47.3748195],[18.9690462,47.3748831],[18.9691374,47.3749212],[18.9691964,47.3749194],[18.9692339,47.3748903],[18.9692527,47.3748413],[18.9692098,47.3747323],[18.9690381,47.3745198],[18.9687726,47.3742637],[18.9685929,47.3740729],[18.9683086,47.3738495],[18.9680591,47.3736461],[18.9676782,47.3734009],[18.9673054,47.3731811],[18.967005,47.3729794],[18.966836,47.3728541]],[[19.026934,47.4032424],[19.0270304,47.4032096],[19.0270328,47.4031188],[19.0269435,47.4030335],[19.0265102,47.4028484],[19.02485,47.4022208],[19.0246293,47.4022219],[19.0245457,47.4022741],[19.0246128,47.4024267],[19.0262565,47.4030871],[19.0267699,47.4032405],[19.026934,47.4032424]],[[19.0089999,47.3903119],[19.0090478,47.3902576],[19.0090286,47.3902208],[19.0083784,47.3901135],[19.0079648,47.3900591],[19.0066311,47.3899521],[19.0061885,47.3898888],[19.0057992,47.3898763],[19.0049514,47.3899455],[19.0042929,47.389994],[19.0036958,47.3900047],[19.0033859,47.3900952],[19.0033365,47.3901409],[19.0033525,47.3901955],[19.0060101,47.3910096],[19.0071008,47.3910904],[19.0075134,47.3910512],[19.0080858,47.3909018],[19.0082894,47.3907746],[19.008688,47.3904866],[19.0089999,47.3903119]]]}},
{"type":"Feature","properties":{"id":"relation/4514299","natural":"water"},"geometry":{"type":"Polygon","coordinates":[[[19.0724082,47.4927955],[19.0723632,47.492907],[19.0719642,47.4928334],[19.0720092,47.4927219],[19.0724082,47.4927955]]]}},
{"type":"Feature","properties":{"id":"relation/6215180","name":"Nagytó","name:en":"Great Lake","natural":"water"},"geometry":{"type":"Polygon","coordinates":[[[19.075892,47.517672],[19.0760038,47.5177476],[19.0761319,47.5178246],[19.0761158,47.5178463],[19.076126,47.517886],[19.0760645,47.5179891],[19.0760019,47.5180429],[19.0759432,47.518086],[19.0758857,47.5181158],[19.0757734,47.5180907],[19.0756113,47.5181253],[19.0754964,47.5181276],[19.0754724,47.5181084],[19.0754724,47.5181001],[19.0754954,47.5180811],[19.0754445,47.5180352],[19.0753106,47.5180176],[19.075242,47.5180342],[19.0751959,47.5180946],[19.0751303,47.5181228],[19.0750346,47.5181433],[19.074983,47.5180183],[19.0749851,47.5179373],[19.0750172,47.5178885],[19.0748247,47.517781],[19.0748397,47.5177545],[19.0749056,47.5177237],[19.0749602,47.5176916],[19.0751788,47.5175709],[19.075282,47.5175529],[19.0754258,47.5174929],[19.075659,47.5174305],[19.0757002,47.5174228],[19.0757892,47.5175728],[19.0758693,47.5176561],[19.075892,47.517672]],[[19.0753108,47.5179724],[19.0753482,47.5179736],[19.0754533,47.5179819],[19.075483,47.5179759],[19.0755011,47.5179499],[19.0754947,47.5179334],[19.0754772,47.5179192],[19.0754276,47.5179137],[19.0753914,47.5179125],[19.075392,47.5178999],[19.0753692,47.5178967],[19.0753412,47.5178935],[19.0753254,47.5179018],[19.0753114,47.5178995],[19.0752706,47.5179026],[19.075242,47.517914],[19.0752215,47.517931],[19.0752262,47.517944],[19.0752676,47.5179606],[19.0753108,47.5179724]],[[19.0754891,47.5175455],[19.0754938,47.517559],[19.0755107,47.5175601],[19.0755384,47.5175757],[19.0755846,47.5176017],[19.0756108,47.5176246],[19.0756309,47.5176522],[19.0756571,47.5176548],[19.0756925,47.5176391],[19.0757017,47.5176111],[19.0756701,47.5175762],[19.0756247,47.5175361],[19.0755731,47.5175195],[19.07553,47.5175185],[19.0754891,47.5175455]]]}},
{"type":"Feature","properties":{"id":"relation/70396","natural":"water","water":"river"},"geometry":{"type":"Polygon","coordinates":[[[19.0635582,47.5637076],[19.0633536,47.5635007],[19.0622035,47.5625682],[19.0610362,47.5620296],[19.059311,47.5614562],[19.0581093,47.560935],[19.0570096,47.5603919],[19.0558456,47.5596723],[19.0550044,47.558899],[19.0547943,47.5586516],[19.0544917,47.5582953],[19.0540978,47.5578796],[19.0517149,47.5558436],[19.0514332,47.5556144],[19.0502129,47.5546214],[19.0491915,47.5532312],[19.0484963,47.55209],[19.0483246,47.5519741],[19.0481959,47.5517192],[19.0481101,47.5500277],[19.0481057,47.549888],[19.0481376,47.5495575],[19.0482646,47.5482434],[19.0478394,47.5469663],[19.0475786,47.5463795],[19.0474248,47.5460635],[19.0474121,47.5460284],[19.0473035,47.5457296],[19.0472282,47.5453783],[19.0471974,47.5448505],[19.0471745,47.5431044],[19.047329,47.5417023],[19.0474416,47.5411013],[19.0475534,47.540907],[19.0475725,47.5404504],[19.0476089,47.5397962],[19.0475862,47.5393302],[19.0475779,47.5391471],[19.0475798,47.5387547],[19.0475865,47.5373972],[19.0473505,47.5366497],[19.047349,47.5362447],[19.0474095,47.535811],[19.0466166,47.5344303],[19.0449515,47.532518],[19.0438606,47.5312442],[19.0434924,47.5308142],[19.042451,47.5293629],[19.0419365,47.5286963],[19.0412714,47.5275447],[19.0405055,47.52623],[19.03963,47.5244159],[19.0391472,47.5234016],[19.0389943,47.5226416],[19.0388973,47.5220241],[19.0388622,47.5214816],[19.038863,47.5208235],[19.0389118,47.5203046],[19.0389771,47.5198667],[19.0391159,47.519292],[19.0392481,47.5188256],[19.0396551,47.5175085],[19.040011,47.5161791],[19.0400376,47.5161028],[19.0400573,47.5160574],[19.0400792,47.5160047],[19.0400764,47.5159684],[19.0400563,47.5159431],[19.0400157,47.515927],[19.0400531,47.5158079],[19.0401294,47.5154219],[19.040166,47.5150863],[19.0401879,47.5141502],[19.040168,47.5137844],[19.0400506,47.5132053],[19.039831,47.5122633],[19.039764,47.5122687],[19.0397157,47.5117723],[19.0397036,47.5115504],[19.0397003,47.5110259],[19.0396835,47.5083164],[19.039734,47.5083139],[19.0397345,47.5078648],[19.0397385,47.5068815],[19.0397881,47.505933],[19.0398163,47.5054519],[19.0446082,47.5055351],[19.0447455,47.5068976],[19.0448914,47.5075991],[19.0449789,47.5081277],[19.0450719,47.508521],[19.0451223,47.5087798],[19.0451706,47.5087753],[19.0453845,47.5097731],[19.045473,47.5101699],[19.045921,47.5120862],[19.0458747,47.5120943],[19.0459699,47.5125445],[19.046033,47.5127473],[19.0461335,47.5131147],[19.0463173,47.5135522],[19.0464329,47.5138043],[19.046597,47.5141139],[19.0465455,47.5141362],[19.0467699,47.5145272],[19.0476354,47.5160351],[19.0488815,47.5178321],[19.0499121,47.5191166],[19.0513174,47.521059],[19.0529681,47.5235523],[19.0545726,47.5266113],[19.0548134,47.5270703],[19.0559644,47.5298907],[19.0559731,47.52992],[19.0569781,47.533327],[19.0570464,47.5335585],[19.0571695,47.5339829],[19.0577216,47.5363398],[19.0580055,47.5371899],[19.0581522,47.5376289],[19.05875,47.539],[19.0590518,47.5396415],[19.0604656,47.5420198],[19.0605365,47.5421143],[19.0605934,47.5421632],[19.0629101,47.5434027],[19.0633021,47.54351],[19.0632749,47.5433474],[19.0637094,47.5432162],[19.0638046,47.5432144],[19.0643531,47.5432994],[19.0643397,47.5435267],[19.0643491,47.5437286],[19.0652785,47.5439331],[19.0654689,47.5443722],[19.0655561,47.5445623],[19.0656003,47.5447542],[19.0655809,47.5448643],[19.0654501,47.5450819],[19.065316,47.5451915],[19.0650263,47.5453381],[19.064752,47.545404],[19.0644995,47.5453869],[19.0642565,47.5452766],[19.0639696,47.5450204],[19.063877,47.5449389],[19.0637402,47.5447814],[19.0636893,47.5447968],[19.0635196,47.5445682],[19.0628895,47.5439655],[19.0617307,47.5433731],[19.0613805,47.5431381],[19.0611921,47.5431402],[19.0610888,47.5432329],[19.0624821,47.5455681],[19.0634929,47.547276],[19.0642703,47.5482742],[19.0650502,47.5490049],[19.065748,47.549575],[19.0662086,47.5498957],[19.0665006,47.5499854],[19.0667794,47.5500024],[19.0672258,47.5499601],[19.0675302,47.549914],[19.0683942,47.5496723],[19.0684918,47.549694],[19.0685561,47.5497628],[19.0686228,47.5498586],[19.0697663,47.5515225],[19.0705179,47.5516805],[19.0719032,47.5533226],[19.0722088,47.5536848],[19.0728697,47.5545016],[19.0739082,47.5556949],[19.0743889,47.5562625],[19.0755218,47.5578322],[19.0759638,47.5587775],[19.0761312,47.5591355],[19.076466,47.5598711],[19.0768007,47.5602881],[19.0771011,47.5606588],[19.0774616,47.5611221],[19.077797,47.562707],[19.0778049,47.563769],[19.0777105,47.564933],[19.0775,47.5655866],[19.0773363,47.5660155],[19.0773824,47.5660582],[19.0773314,47.5661507],[19.0772387,47.5661684],[19.0772009,47.5662833],[19.0771503,47.5663761],[19.0770406,47.5665317],[19.0769171,47.5666786],[19.0767055,47.566891],[19.0764715,47.5670671],[19.0763795,47.5671276],[19.0762455,47.5672096],[19.0761877,47.5672113],[19.0761326,47.567195],[19.0760652,47.5671622],[19.076012,47.5671112],[19.0759617,47.5670335],[19.0759232,47.5669597],[19.0758834,47.5666946],[19.0759098,47.5664323],[19.076094,47.5657222],[19.0761968,47.5656122],[19.0762754,47.5651898],[19.0762681,47.5650363],[19.0761661,47.5649937],[19.0761159,47.564916],[19.0760945,47.5646771],[19.0760703,47.5643577],[19.0760006,47.564345],[19.0759926,47.5642835],[19.0761133,47.5642853],[19.0761374,47.5641993],[19.0760945,47.5641559],[19.0762085,47.5640925],[19.0761537,47.5638904],[19.0762256,47.5636995],[19.0761226,47.563603],[19.0760918,47.5634202],[19.0760837,47.5633134],[19.0761319,47.5632486],[19.0760529,47.5631125],[19.0759465,47.5629962],[19.0760368,47.562936],[19.0756795,47.5615519],[19.0755849,47.561298],[19.0754709,47.5611243],[19.0753368,47.5610144],[19.0750873,47.5606944],[19.0748835,47.5604356],[19.0748655,47.5602176],[19.0734968,47.5583765],[19.0723633,47.5569518],[19.0719151,47.5563255],[19.0713934,47.5555964],[19.0700997,47.5542219],[19.0693024,47.5533815],[19.0686725,47.5527174],[19.0685137,47.5525879],[19.068198,47.5523304],[19.0671667,47.5514579],[19.0668047,47.5511472],[19.0664324,47.5508278],[19.0664205,47.5508175],[19.0661834,47.5506262],[19.0654162,47.5498781],[19.065315,47.5497799],[19.0652529,47.5497513],[19.0651783,47.54975],[19.0651354,47.5497752],[19.0651264,47.5498399],[19.0651379,47.5499627],[19.0652277,47.5504966],[19.0654037,47.5509421],[19.0654885,47.5511837],[19.0656223,47.5515646],[19.0658621,47.5521399],[19.0659767,47.5525403],[19.0662539,47.5535083],[19.0664216,47.5541354],[19.0665948,47.5547687],[19.0668926,47.5553746],[19.0670625,47.5556696],[19.0677686,47.5568648],[19.0680535,47.5573353],[19.0687991,47.5585664],[19.0689552,47.5588242],[19.0694578,47.559638],[19.0699287,47.5605717],[19.070637,47.5620555],[19.0635582,47.5637076]],[[19.0534655,47.5318849],[19.052599,47.5294233],[19.0517064,47.5273775],[19.0504961,47.5250708],[19.049184,47.5229438],[19.0484821,47.5218044],[19.0484568,47.5217648],[19.0466134,47.5191712],[19.0458012,47.5180283],[19.0445652,47.5160922],[19.0441275,47.5153097],[19.0437756,47.5150198],[19.04354,47.5149422],[19.0434409,47.5149966],[19.0431616,47.5153641],[19.0426755,47.516794],[19.0423508,47.5178255],[19.0421534,47.5191123],[19.0419131,47.5205556],[19.0419131,47.5212628],[19.0420332,47.522167],[19.0421994,47.5229505],[19.0423766,47.5233494],[19.0429586,47.5247024],[19.0438847,47.52646],[19.0445819,47.5275537],[19.0450931,47.5283045],[19.045229,47.5285773],[19.0465555,47.5303252],[19.0477732,47.5317269],[19.0487079,47.532703],[19.049667,47.5336775],[19.0507162,47.5346709],[19.0517629,47.5356609],[19.051877,47.5357926],[19.0531282,47.5372364],[19.0537299,47.5379976],[19.0544251,47.5385967],[19.0548195,47.5387674],[19.0548921,47.538483],[19.0548469,47.5381621],[19.0547571,47.5378115],[19.0545402,47.536873],[19.0544444,47.5361977],[19.0540238,47.5338566],[19.0534655,47.5318849]],[[19.0478984,47.5451583],[19.0481101,47.5458217],[19.0486508,47.5468935],[19.0489499,47.5480264],[19.0490714,47.5484867],[19.0489855,47.5487591],[19.0488396,47.5499234],[19.0489083,47.551279],[19.0491658,47.5518583],[19.0504275,47.5535787],[19.0515347,47.5546909],[19.0546589,47.5573323],[19.0560923,47.5591394],[19.0578776,47.5601125],[19.0582613,47.5602596],[19.0590106,47.5605469],[19.0591312,47.5605876],[19.060193,47.5606329],[19.0605654,47.5606313],[19.060936,47.560565],[19.0612078,47.5604311],[19.061361,47.5601132],[19.0613709,47.5590583],[19.0616112,47.5579405],[19.0614138,47.5567646],[19.0612726,47.5561722],[19.0612502,47.5558844],[19.0610987,47.5556218],[19.0608798,47.5549528],[19.0599461,47.5524317],[19.0594601,47.5517054],[19.0585044,47.5501391],[19.0584182,47.549973],[19.0581351,47.5494483],[19.056573,47.5471021],[19.0545388,47.543707],[19.054041,47.5428785],[19.0539743,47.5428121],[19.0538423,47.5425241],[19.0537468,47.5423354],[19.0536182,47.5420222],[19.0532942,47.5415632],[19.0531226,47.54143],[19.0528771,47.54108],[19.0526958,47.5409572],[19.0522647,47.5404124],[19.0519961,47.5402776],[19.0512265,47.5394198],[19.0513218,47.5393244],[19.0511682,47.539089],[19.0504514,47.5386835],[19.0503417,47.5384923],[19.0499653,47.5379431],[19.0494902,47.5372944],[19.0493315,47.537243],[19.0491847,47.5373742],[19.0495181,47.5381189],[19.0499455,47.5388954],[19.0500355,47.5396373],[19.0501872,47.5401495],[19.0503073,47.5403001],[19.0505991,47.5416096],[19.0507193,47.5416849],[19.0508652,47.5423165],[19.0512858,47.5433246],[19.0515175,47.5435853],[19.051569,47.544466],[19.0515347,47.544999],[19.0516291,47.5450917],[19.051304,47.5473818],[19.0507064,47.5473755],[19.0506249,47.5471252],[19.0505991,47.5463315],[19.0505841,47.5450135],[19.0505679,47.5442109],[19.0504751,47.5433736],[19.0502571,47.5432383],[19.0501261,47.5427417],[19.0499382,47.5425251],[19.0495606,47.5410592],[19.048633,47.5372689],[19.0483541,47.5373004],[19.0482045,47.5373566],[19.04805,47.5406883],[19.0477753,47.5417718],[19.0476466,47.543933],[19.0477496,47.5446919],[19.0478984,47.5451583]]]}},
{"type":"Feature","properties":{"id":"way/109561910","name":"Duna","name:en":"Danube","waterway":"river"},"geometry":{"type":"LineString","coordinates":[[19.0549817,47.4857658],[19.0561889,47.4847643],[19.0590281,47.4823975],[19.0613931,47.4806468],[19.0617553,47.4803865],[19.0627446,47.4796639],[19.0635928,47.4788408]]}},
{"type":"Feature","properties":{"id":"way/1136503880","name":"Duna","name:en":"Danube","waterway":"river"},"geometry":{"type":"LineString","coordinates":[[19.0654709,47.4764997],[19.0658161,47.4760395],[19.0663615,47.4748883]]}},
{"type":"Feature","properties":{"id":"way/1136798873","name":"Duna","name:en":"Danube","waterway":"river"},"geometry":{"type":"LineString","coordinates":[[19.049806,47.5213198],[19.0485623,47.5192239],[19.0471918,47.5170731]]}},
{"type":"Feature","properties":{"id":"way/1136801626","name":"Duna","name:en":"Danube","waterway":"river"},"geometry":{"type":"LineString","coordinates":[[19.0563509,47.5417497],[19.0561851,47.5395159]]}},
{"type":"Feature","properties":{"id":"way/1164346921","natural":"water","water":"pond"},"geometry":{"type":"Polygon","coordinates":[[[19.0619767,47.5314836],[19.0621079,47.5314982],[19.0620979,47.5315316],[19.0622889,47.5315575],[19.0622988,47.5315241],[19.0624038,47.5315479],[19.0626734,47.5318467],[19.0626298,47.5318499],[19.0624065,47.5317204],[19.0621604,47.5317195],[19.0621369,47.5316874],[19.06197,47.5316118],[19.0619653,47.5315769],[19.0618902,47.531538],[19.0618848,47.5315072],[19.061915,47.5314913],[19.0619767,47.5314836]]]}},
{"type":"Feature","properties":{"id":"way/121236769","name":"Millenáris-tó","natural":"water","water":"pond"},"geometry":{"type":"Polygon","coordinates":[[[19.0245126,47.5113656],[19.0246545,47.5115053],[19.0246329,47.511515],[19.0246473,47.5115289],[19.0245042,47.511589],[19.0244645,47.5117393],[19.0243875,47.5117823],[19.0243707,47.511862],[19.024337,47.511892],[19.0243057,47.511901],[19.0243045,47.511918],[19.0242817,47.5119278],[19.0242793,47.511953],[19.0242323,47.5119749],[19.0242095,47.511966],[19.0242083,47.511944],[19.0241999,47.5119318],[19.0242191,47.5119188],[19.0242059,47.5119002],[19.0242203,47.5118709],[19.0241999,47.5118522],[19.0242131,47.5118124],[19.0242612,47.5117962],[19.0242384,47.5117807],[19.0242191,47.5117742],[19.0242299,47.511732],[19.024266,47.5117157],[19.0242564,47.5116995],[19.0243081,47.5116719],[19.0243081,47.5116459],[19.0243274,47.511628],[19.0243201,47.5116052],[19.0243226,47.5115435],[19.0243238,47.511511],[19.024331,47.5114874],[19.024355,47.5114874],[19.0243887,47.5114509],[19.0244392,47.5114395],[19.0244525,47.5113956],[19.0245126,47.5113656]]]}},
{"type":"Feature","properties":{"id":"way/1346937465","natural":"water"},"geometry":{"type":"Polygon","coordinates":[[[19.0762108,47.5183285],[19.076225,47.518283],[19.0762666,47.518268],[19.0763036,47.5182576],[19.076329,47.5182581],[19.0763752,47.5182768],[19.0763919,47.5183275],[19.0763659,47.518332],[19.0763477,47.5183348],[19.0763334,47.5183367],[19.076307,47.5183386],[19.0762891,47.5183375],[19.0762802,47.5183323],[19.0762651,47.5183285],[19.0762509,47.5183362],[19.076246,47.5183436],[19.0762326,47.5183471],[19.0762188,47.5183425],[19.0762108,47.5183285]]]}},
{"type":"Feature","properties":{"id":"way/1356218999","natural":"water","water":"pond"},"geometry":{"type":"Polygon","coordinates":[[[19.0309492,47.4904747],[19.0309571,47.490461],[19.0309749,47.4904525],[19.0309967,47.490452],[19.0310153,47.4904597],[19.0310245,47.4904731],[19.0310213,47.4904876],[19.0310093,47.4904975],[19.0309916,47.4905022],[19.0309728,47.4905006],[19.0309596,47.4904945],[19.0309512,47.4904854],[19.0309492,47.4904747]]]}},
{"type":"Feature","properties":{"id":"way/1431909232","natural":"water"},"geometry":{"type":"Polygon","coordinates":[[[19.0628801,47.525058],[19.0627726,47.5248417],[19.0628264,47.5248285],[19.062933,47.5250456],[19.0628801,47.525058]]]}},
{"type":"Feature","properties":{"id":"way/1443227585","natural":"water","water":"pond"},"geometry":{"type":"Polygon","coordinates":[[[19.0541862,47.4765136],[19.0541881,47.4764877],[19.0542545,47.47649],[19.0542526,47.4765158],[19.0541862,47.4765136]]]}},
{"type":"Feature","properties":{"id":"way/1469952121","natural":"water","water":"pond"},"geometry":{"type":"Polygon","coordinates":[[[19.0339188,47.5374377],[19.0339109,47.5374391],[19.0339026,47.5374385],[19.0338957,47.5374354],[19.0338912,47.5374308],[19.0338893,47.5374256],[19.0338937,47.5374194],[19.0338954,47.537411],[19.0338932,47.5374059],[19.0339035,47.5373959],[19.0339212,47.5373903],[19.033933,47.5373886],[19.0339404,47.5373916],[19.0339419,47.5373956],[19.0339414,47.5374022],[19.033935,47.5374082],[19.0339222,47.5374152],[19.0339212,47.5374221],[19.0339237,47.5374271],[19.0339242,47.5374331],[19.0339188,47.5374377]]]}},
{"type":"Feature","properties":{"id":"way/1486508473","natural":"water"},"geometry":{"type":"Polygon","coordinates":[[[19.0742622,47.5172899],[19.0742441,47.5172727],[19.0742374,47.5172283],[19.0742515,47.5172129],[19.0742749,47.5172021],[19.0742984,47.5172048],[19.0743212,47.5172132],[19.0743296,47.5172315],[19.0743373,47.51727],[19.0743249,47.5172883],[19.0742622,47.5172899]]]}},
{"type":"Feature","properties":{"id":"way/1514412765","natural":"water"},"geometry":{"type":"Polygon","coordinates":[[[19.0640808,47.5449616],[19.0639812,47.5448442],[19.0640424,47.5448205],[19.064142,47.544938],[19.0640808,47.5449616]]]}},
{"type":"Feature","properties":{"id":"way/187869210","natural":"water"},"geometry":{"type":"Polygon","coordinates":[[[19.0582805,47.5102705],[19.0583904,47.5101831],[19.0584816,47.5102335],[19.0583706,47.5103221],[19.0582805,47.5102705]]]}},
{"type":"Feature","properties":{"id":"way/187869213","natural":"water"},"geometry":{"type":"Polygon","coordinates":[[[19.0584836,47.5101862],[19.0584953,47.5101767],[19.0586444,47.5102603],[19.0587282,47.5101922],[19.0588317,47.5102503],[19.0587363,47.5103279],[19.0584836,47.5101862]]]}},
{"type":"Feature","properties":{"id":"way/196868519","natural":"water","water":"pond"},"geometry":{"type":"Polygon","coordinates":[[[19.0513286,47.5344257],[19.0513351,47.5344187],[19.0513429,47.5344103],[19.0513784,47.5344171],[19.0514023,47.534425],[19.0514269,47.5344418],[19.0514453,47.5344461],[19.0514738,47.5344455],[19.0514946,47.5344361],[19.0515492,47.5343848],[19.0515895,47.5344101],[19.0515821,47.5344246],[19.0515788,47.5344352],[19.0515954,47.534459],[19.0516277,47.534478],[19.0516404,47.5344884],[19.051674,47.5345054],[19.0516981,47.534504],[19.0517246,47.5345303],[19.0517234,47.5345332],[19.0516937,47.5345428],[19.0516626,47.5345498],[19.0516167,47.5345636],[19.0515929,47.5345753],[19.0515741,47.5345898],[19.0515637,47.5346059],[19.0515432,47.5346199],[19.0515291,47.5346211],[19.051513,47.5346195],[19.0515,47.5346122],[19.0514919,47.5346],[19.0514765,47.534562],[19.0514624,47.5345423],[19.0514399,47.5345296],[19.051392,47.5345147],[19.0513759,47.5345045],[19.0513662,47.5344918],[19.0513477,47.5344478],[19.0513286,47.5344257]]]}},
{"type":"Feature","properties":{"id":"way/202167858","name":"Duna","name:en":"Danube","waterway":"river"},"geometry":{"type":"LineString","coordinates":[[19.0463905,47.4944418],[19.0487215,47.4911837],[19.0487841,47.4911191],[19.0490397,47.4908514]]}},
{"type":"Feature","properties":{"id":"way/20828643","name":"Feneketlen-tó","name:en":"Lake Feneketlen","natural":"water","water":"lake"},"geometry":{"type":"Polygon","coordinates":[[[19.0417662,47.477769],[19.0416812,47.4777331],[19.0416151,47.4776764],[19.0416045,47.4776386],[19.041537,47.4775316],[19.0415134,47.477438],[19.0414852,47.4773326],[19.0414463,47.4772431],[19.0414091,47.4771483],[19.0414098,47.4770693],[19.0414008,47.4769643],[19.0413869,47.4769174],[19.0413476,47.4768938],[19.0413226,47.4768399],[19.0412246,47.4765413],[19.0411989,47.4764963],[19.041143,47.4764435],[19.0410979,47.4763878],[19.0410576,47.4762258],[19.0410535,47.4761516],[19.0410988,47.4760947],[19.0411721,47.4760428],[19.0413289,47.4759961],[19.0414295,47.4759935],[19.0415899,47.4760503],[19.0418263,47.4762066],[19.041883,47.4762581],[19.0419119,47.4763074],[19.0419489,47.4763942],[19.0419758,47.4765029],[19.041984,47.4765681],[19.0419818,47.4766936],[19.0419803,47.4768241],[19.0420028,47.4769834],[19.0421061,47.477325],[19.0421307,47.4774676],[19.0421633,47.4775503],[19.0421787,47.4776354],[19.0421391,47.4776818],[19.0420389,47.4777262],[19.0418876,47.4777604],[19.0417662,47.477769]]]}},
{"type":"Feature","properties":{"id":"way/219444250","natural":"water","water":"basin"},"geometry":{"type":"Polygon","coordinates":[[[19.054026,47.4985293],[19.0542758,47.4985542],[19.0542247,47.4987882],[19.0539749,47.4987633],[19.054026,47.4985293]]]}},
{"type":"Feature","properties":{"id":"way/221283673","natural":"water"},"geometry":{"type":"Polygon","coordinates":[[[19.0258989,47.5428898],[19.0258151,47.5428721],[19.0257883,47.5427911],[19.025797,47.5426771],[19.0258312,47.5425616],[19.0258654,47.5424937],[19.0259613,47.5424412],[19.0261283,47.5424652],[19.026188,47.5425155],[19.0262825,47.5425725],[19.0263569,47.542606],[19.0264468,47.5426494],[19.0264723,47.5426825],[19.0264696,47.5427219],[19.026428,47.5427748],[19.0264375,47.5430145],[19.0264175,47.5430736],[19.026367,47.5431139],[19.026251,47.543132],[19.0261538,47.5431379],[19.0260384,47.5431107],[19.0259251,47.5430401],[19.0258802,47.5429993],[19.0259361,47.5429265],[19.0259526,47.5428993],[19.0258989,47.5428898]]]}},
{"type":"Feature","properties":{"id":"way/239496252","name":"Duna","name:en":"Danube","waterway":"river"},"geometry":{"type":"LineString","coordinates":[[19.0452562,47.5141302],[19.042713,47.5115985]]}},
{"type":"Feature","properties":{"id":"way/239496253","name":"Duna","name:en":"Danube","waterway":"river"},"geometry":{"type":"LineString","coordinates":[[19.0471918,47.5170731],[19.0454213,47.5142945],[19.0452562,47.5141302]]}},
{"type":"Feature","properties":{"id":"way/239496670","name":"Duna","name:en":"Danube","waterway":"river"},"geometry":{"type":"LineString","coordinates":[[19.061952,47.5514364],[19.0563509,47.5417497]]}},
{"type":"Feature","properties":{"id":"way/239496791","name":"Duna","name:en":"Danube","waterway":"river"},"geometry":{"type":"LineString","coordinates":[[19.0635928,47.4788408],[19.0640654,47.4783738],[19.0654709,47.4764997]]}},
{"type":"Feature","properties":{"id":"way/242382238","natural":"water","water":"lake"},"geometry":{"type":"Polygon","coordinates":[[[19.0371686,47.4805636],[19.0371509,47.4805579],[19.0371525,47.4805313],[19.0371257,47.4805023],[19.0371005,47.4804977],[19.0370781,47.4804971],[19.0370623,47.4805051],[19.0370489,47.4805084],[19.0370355,47.4805031],[19.0370294,47.4804885],[19.0370371,47.4804677],[19.0370657,47.4804486],[19.0370974,47.4804462],[19.0371486,47.4804575],[19.037182,47.4804697],[19.0372173,47.4804764],[19.0372396,47.4804796],[19.0372511,47.4804935],[19.0372498,47.4805031],[19.0372252,47.4805187],[19.0372104,47.4805382],[19.0371981,47.4805367],[19.0371859,47.4805535],[19.037178,47.4805596],[19.0371686,47.4805636]]]}},
{"type":"Feature","properties":{"id":"way/265323814","name":"Halastó","natural":"water","water":"pond"},"geometry":{"type":"Polygon","coordinates":[[[19.0508677,47.5340271],[19.0508171,47.5340573],[19.0507882,47.534055],[19.0507675,47.5340405],[19.0507586,47.534021],[19.0507768,47.5339993],[19.0508046,47.5339778],[19.0508275,47.5339454],[19.0508351,47.5339148],[19.0508348,47.5338818],[19.0508294,47.5338535],[19.0508321,47.5338333],[19.0508387,47.5338152],[19.0508573,47.5337995],[19.0508847,47.5337877],[19.0509102,47.5337856],[19.0509323,47.5337931],[19.0509571,47.5338308],[19.0509725,47.5338401],[19.0509738,47.5338471],[19.0510059,47.5338674],[19.0510138,47.5338816],[19.0510101,47.5338983],[19.0509786,47.5339289],[19.0509709,47.5339447],[19.0509693,47.5339583],[19.0509647,47.5339727],[19.0509662,47.5339979],[19.0510464,47.5340124],[19.0510406,47.5340203],[19.0510175,47.5340267],[19.0510192,47.5340472],[19.0510068,47.5340547],[19.0509463,47.5340452],[19.0509267,47.5340407],[19.050879,47.5340297],[19.0508677,47.5340271]]]}},
{"type":"Feature","properties":{"id":"way/266806383","natural":"water","water":"reflecting_pool"},"geometry":{"type":"Polygon","coordinates":[[[19.0475214,47.5072445],[19.047541,47.5066691],[19.0475896,47.5066653],[19.0476025,47.5066643],[19.0475847,47.5072408],[19.0475724,47.5072416],[19.0475214,47.5072445]]]}},
{"type":"Feature","properties":{"id":"way/294497907","natural":"water","water":"pond"},"geometry":{"type":"Polygon","coordinates":[[[19.0377527,47.5177765],[19.0377481,47.517654],[19.0378516,47.5176522],[19.0378526,47.5176781],[19.0378784,47.5176777],[19.037881,47.517747],[19.0378552,47.5177474],[19.0378562,47.5177747],[19.0377527,47.5177765]]]}},
{"type":"Feature","properties":{"id":"way/315050848","name":"Duna","name:en":"Danube","waterway":"river"},"geometry":{"type":"LineString","coordinates":[[19.0451527,47.4961718],[19.0463905,47.4944418]]}},
{"type":"Feature","properties":{"id":"way/367090115","natural":"water"},"geometry":{"type":"Polygon","coordinates":[[[19.0781012,47.5192272],[19.0781227,47.5192139],[19.0781435,47.5191913],[19.0781749,47.5191841],[19.0782037,47.5191884],[19.0782037,47.5192054],[19.0781623,47.5192521],[19.0781164,47.5192868],[19.0781038,47.5192886],[19.0780913,47.5192965],[19.078067,47.5193311],[19.0780526,47.5193766],[19.0780525,47.5194099],[19.0780773,47.5194503],[19.078103,47.5194797],[19.0780841,47.5194902],[19.078058,47.5194878],[19.0780211,47.5194744],[19.0779815,47.5194404],[19.0779698,47.5193876],[19.0779869,47.5193384],[19.0780238,47.5192795],[19.0780373,47.5192521],[19.0781012,47.5192272]]]}},
{"type":"Feature","properties":{"id":"way/369289326","natural":"water","water":"pond"},"geometry":{"type":"Polygon","coordinates":[[[19.0319345,47.5119778],[19.0318397,47.5119688],[19.0317822,47.5119172],[19.0317955,47.5118532],[19.0318719,47.5118143],[19.0319666,47.5118233],[19.0320242,47.5118749],[19.0320109,47.5119389],[19.0319345,47.5119778]]]}},
{"type":"Feature","properties":{"id":"way/378673847","natural":"water","water":"reflecting_pool"},"geometry":{"type":"Polygon","coordinates":[[[19.0538231,47.4835777],[19.0538238,47.4835367],[19.0539282,47.4835304],[19.0538582,47.4835876],[19.0538231,47.4835777]]]}},
{"type":"Feature","properties":{"id":"way/378673848","natural":"water","water":"reflecting_pool"},"geometry":{"type":"Polygon","coordinates":[[[19.0538242,47.4834038],[19.0538257,47.4833413],[19.0538593,47.4833282],[19.0539049,47.483349],[19.0539135,47.4833981],[19.0538242,47.4834038]]]}},
{"type":"Feature","properties":{"id":"way/378673849","natural":"water","water":"reflecting_pool"},"geometry":{"type":"Polygon","coordinates":[[[19.0539626,47.4835055],[19.053941,47.4833635],[19.0540318,47.4834034],[19.0540399,47.4834473],[19.0539626,47.4835055]]]}},
{"type":"Feature","properties":{"id":"way/380392270","natural":"water","water":"pond"},"geometry":{"type":"Polygon","coordinates":[[[19.0237782,47.5118544],[19.023766,47.5118407],[19.0238402,47.5118023],[19.0242284,47.512182],[19.0242081,47.5121917],[19.0241496,47.5121357],[19.0238371,47.5118229],[19.0237782,47.5118544]]]}},
{"type":"Feature","properties":{"id":"way/38483120","name":"Duna","name:en":"Danube","waterway":"river"},"geometry":{"type":"LineString","coordinates":[[19.0421679,47.5056015],[19.0422372,47.5050566],[19.0422565,47.5049049]]}},
{"type":"Feature","properties":{"id":"way/39621803","name":"Duna","name:en":"Danube","waterway":"river"},"geometry":{"type":"LineString","coordinates":[[19.0561851,47.5395159],[19.0558515,47.5350208],[19.0554716,47.5337218],[19.0538263,47.5280947],[19.0533787,47.5273404],[19.0530465,47.5267806]]}},
{"type":"Feature","properties":{"id":"way/39621948","name":"Duna","name:en":"Danube","waterway":"river"},"geometry":{"type":"LineString","coordinates":[[19.0423588,47.5077016],[19.0421679,47.5056015]]}},
{"type":"Feature","properties":{"id":"way/39621949","name":"Duna","name:en":"Danube","waterway":"river"},"geometry":{"type":"LineString","coordinates":[[19.042713,47.5115985],[19.0426953,47.511404],[19.0424018,47.5081751],[19.0423588,47.5077016]]}},
{"type":"Feature","properties":{"id":"way/39622344","name":"Duna","name:en":"Danube","waterway":"river"},"geometry":{"type":"LineString","coordinates":[[19.0513614,47.4888863],[19.0549817,47.4857658]]}},
{"type":"Feature","properties":{"id":"way/431388964","natural":"water"},"geometry":{"type":"Polygon","coordinates":[[[19.0763308,47.5175145],[19.0763174,47.5175103],[19.0762954,47.5175033],[19.0762931,47.5174828],[19.0762569,47.517467],[19.0762604,47.5174394],[19.0762429,47.5174308],[19.0762522,47.5174126],[19.0762803,47.5173519],[19.0762952,47.5173451],[19.0763237,47.5173527],[19.0764316,47.5174155],[19.0764614,47.5174208],[19.0764605,47.5174391],[19.0764538,47.5174712],[19.0763962,47.5174848],[19.0763487,47.5174963],[19.0763308,47.5175145]]]}},
{"type":"Feature","properties":{"id":"way/459401493","name":"Duna","name:en":"Danube","waterway":"river"},"geometry":{"type":"LineString","coordinates":[[19.0437221,47.4989605],[19.0447988,47.4966665],[19.0451527,47.4961718]]}},
{"type":"Feature","properties":{"id":"way/466382852","name":"Duna","name:en":"Danube","waterway":"river"},"geometry":{"type":"LineString","coordinates":[[19.0490397,47.4908514],[19.0491989,47.4906943],[19.0513614,47.4888863]]}},
{"type":"Feature","properties":{"id":"way/466382860","name":"Duna","name:en":"Danube","waterway":"river"},"geometry":{"type":"LineString","coordinates":[[19.0422565,47.5049049],[19.0424448,47.5030511],[19.0428396,47.5011509]]}},
{"type":"Feature","properties":{"id":"way/466393860","name":"Duna","name:en":"Danube","waterway":"river"},"geometry":{"type":"LineString","coordinates":[[19.0428396,47.5011509],[19.0432119,47.5000468],[19.0437221,47.4989605]]}},
{"type":"Feature","properties":{"id":"way/482109550","name":"Malom-tó","natural":"water"},"geometry":{"type":"Polygon","coordinates":[[[19.0360638,47.5183747],[19.0358743,47.5183783],[19.035848,47.5182803],[19.035864,47.5182201],[19.0358815,47.5181843],[19.0358459,47.5181363],[19.0358616,47.5180766],[19.0360512,47.518073],[19.0360638,47.5183747]]]}},
{"type":"Feature","properties":{"id":"way/536447009","natural":"water","water":"reflection_pool"},"geometry":{"type":"Polygon","coordinates":[[[19.0772195,47.4954428],[19.0773363,47.4954125],[19.077464,47.4956811],[19.077367,47.4957059],[19.0772663,47.495523],[19.0772407,47.4954764],[19.0772195,47.4954428]]]}},
{"type":"Feature","properties":{"id":"way/545479608","natural":"water","water":"pond"},"geometry":{"type":"Polygon","coordinates":[[[19.0460835,47.4789866],[19.0460754,47.478955],[19.046112,47.4789495],[19.0461242,47.4789811],[19.0460835,47.4789866]]]}},
{"type":"Feature","properties":{"id":"way/557454377","natural":"water","water":"pond"},"geometry":{"type":"Polygon","coordinates":[[[19.0772113,47.50758],[19.0772262,47.5075642],[19.0772538,47.5075742],[19.0772389,47.50759],[19.0772113,47.50758]]]}},
{"type":"Feature","properties":{"id":"way/633720440","natural":"water","water":"pond"},"geometry":{"type":"Polygon","coordinates":[[[19.0457689,47.4896813],[19.04578,47.4896725],[19.0457943,47.4896659],[19.0458071,47.4896638],[19.0458235,47.4896651],[19.0458362,47.4896689],[19.0458477,47.4896759],[19.0457911,47.4897347],[19.0457789,47.4897293],[19.0457693,47.4897219],[19.0457623,47.4897118],[19.0457598,47.4897016],[19.0457636,47.4896902],[19.0457689,47.4896813]]]}},
{"type":"Feature","properties":{"id":"way/633720441","natural":"water","water":"pond"},"geometry":{"type":"Polygon","coordinates":[[[19.0456808,47.4896408],[19.0456578,47.4896664],[19.0456403,47.4896534],[19.0456348,47.4896385],[19.0456541,47.4896167],[19.0456748,47.4896128],[19.0457007,47.4896157],[19.0456808,47.4896408]]]}},
{"type":"Feature","properties":{"id":"way/65596174","natural":"water"},"geometry":{"type":"Polygon","coordinates":[[[19.0761563,47.5187581],[19.0762457,47.5187402],[19.0763078,47.5187246],[19.0763813,47.5187226],[19.0764631,47.5187325],[19.0764143,47.5187685],[19.076355,47.5187804],[19.0762821,47.5187983],[19.076206,47.5187849],[19.0761563,47.5187581]]]}},
{"type":"Feature","properties":{"id":"way/673193293","natural":"water"},"geometry":{"type":"Polygon","coordinates":[[[19.0342873,47.5234703],[19.0342873,47.5234881],[19.0342657,47.523511],[19.0342723,47.5235466],[19.0342562,47.5235657],[19.0342129,47.5235644],[19.0342289,47.5234703],[19.0342873,47.5234703]]]}},
{"type":"Feature","properties":{"id":"way/710964587","natural":"water","water":"lake"},"geometry":{"type":"Polygon","coordinates":[[[19.0500716,47.5262811],[19.0501172,47.5262402],[19.0501195,47.5262138],[19.0501094,47.5261657],[19.0500944,47.5261302],[19.0501014,47.5261175],[19.0501247,47.5261174],[19.0501816,47.5261343],[19.0502165,47.5261489],[19.0502347,47.5261657],[19.0502434,47.5262009],[19.0502305,47.5262429],[19.050198,47.5262721],[19.0501766,47.5262816],[19.0501819,47.5263039],[19.0501704,47.5263239],[19.0501472,47.526328],[19.050116,47.5263494],[19.0500849,47.5263543],[19.0500611,47.5263462],[19.0500487,47.5263288],[19.0500474,47.5263143],[19.0500716,47.5262811]]]}},
{"type":"Feature","properties":{"id":"way/749650383","natural":"water"},"geometry":{"type":"Polygon","coordinates":[[[19.0501477,47.4984341],[19.0501454,47.4984383],[19.0501412,47.4984419],[19.0501357,47.4984444],[19.0501292,47.4984454],[19.0501226,47.4984452],[19.0501164,47.4984434],[19.0501113,47.4984404],[19.050108,47.4984366],[19.0501066,47.4984321],[19.0501074,47.4984277],[19.0501103,47.4984236],[19.0501153,47.4984202],[19.0501217,47.4984181],[19.0501288,47.4984175],[19.0501357,47.4984187],[19.0501416,47.4984214],[19.0501458,47.4984253],[19.0501478,47.4984296],[19.0501477,47.4984341]]]}},
{"type":"Feature","properties":{"id":"way/749650384","natural":"water"},"geometry":{"type":"Polygon","coordinates":[[[19.0502388,47.4980171],[19.0502368,47.4980206],[19.0502334,47.4980236],[19.0502288,47.4980257],[19.0502234,47.4980266],[19.0502178,47.4980263],[19.0502127,47.4980249],[19.0502086,47.4980224],[19.0502057,47.4980192],[19.0502046,47.4980155],[19.0502053,47.4980117],[19.0502077,47.4980083],[19.0502118,47.4980055],[19.0502171,47.4980038],[19.0502231,47.4980034],[19.0502288,47.4980044],[19.0502337,47.4980066],[19.0502372,47.4980097],[19.0502389,47.4980134],[19.0502388,47.4980171]]]}},
{"type":"Feature","properties":{"id":"way/796910694","natural":"water","water":"reservoir"},"geometry":{"type":"Polygon","coordinates":[[[19.0222324,47.5252617],[19.0221431,47.5252078],[19.0222013,47.5251637],[19.0221704,47.525145],[19.0222531,47.5250825],[19.022322,47.5251241],[19.0222693,47.525164],[19.0223207,47.5251949],[19.0222324,47.5252617]]]}},
{"type":"Feature","properties":{"id":"way/803652548","natural":"water","water":"pond"},"geometry":{"type":"Polygon","coordinates":[[[19.0302723,47.5030018],[19.0302086,47.5029619],[19.0302412,47.5029381],[19.0303049,47.502978],[19.0302723,47.5030018]]]}},
{"type":"Feature","properties":{"id":"way/838292004","natural":"water"},"geometry":{"type":"Polygon","coordinates":[[[19.0740976,47.518139],[19.0740171,47.5180639],[19.073997,47.5180358],[19.0740225,47.5180304],[19.0740587,47.5180539],[19.074115,47.5181146],[19.0741177,47.5181427],[19.0740976,47.518139]]]}},
{"type":"Feature","properties":{"id":"way/838292021","natural":"water"},"geometry":{"type":"Polygon","coordinates":[[[19.0771727,47.5184198],[19.0771365,47.5183845],[19.0771593,47.5183564],[19.0772042,47.5183478],[19.0772478,47.5183537],[19.0772639,47.5183827],[19.0772317,47.5184198],[19.0771727,47.5184198]]]}},
{"type":"Feature","properties":{"id":"way/838292024","natural":"water"},"geometry":{"type":"Polygon","coordinates":[[[19.0750625,47.5167537],[19.0750444,47.5167365],[19.0750377,47.5166921],[19.0750518,47.5166767],[19.0750752,47.5166659],[19.0750987,47.5166686],[19.0751215,47.516677],[19.0751299,47.5166953],[19.0751376,47.5167338],[19.0751252,47.5167521],[19.0750625,47.5167537]]]}},
{"type":"Feature","properties":{"id":"way/851474508","name":"Duna","name:en":"Danube","waterway":"river"},"geometry":{"type":"LineString","coordinates":[[19.0563509,47.5417497],[19.0527104,47.5383317],[19.0486232,47.5347285],[19.0437501,47.5285312],[19.0423576,47.5267601],[19.0405766,47.5219929],[19.0425936,47.5128486],[19.042713,47.5115985]]}},
{"type":"Feature","properties":{"id":"way/865454228","name":"Széllkapu-tó","natural":"water","water":"pond"},"geometry":{"type":"Polygon","coordinates":[[[19.0265793,47.5102184],[19.0265812,47.5101932],[19.0270101,47.5100752],[19.0272414,47.5100435],[19.0273097,47.5100109],[19.0273514,47.5100231],[19.0273742,47.5100747],[19.0272266,47.5101096],[19.0270952,47.5101776],[19.0270369,47.5101703],[19.0268652,47.5102387],[19.0266412,47.5102161],[19.0265793,47.5102184]]]}},
{"type":"Feature","properties":{"id":"way/865454229","natural":"water","water":"pond"},"geometry":{"type":"Polygon","coordinates":[[[19.0226407,47.5071211],[19.022683,47.50706],[19.0227641,47.5070613],[19.0227641,47.5071478],[19.0226407,47.5071211]]]}},
{"type":"Feature","properties":{"id":"way/890998452","natural":"water"},"geometry":{"type":"Polygon","coordinates":[[[19.0275137,47.544658],[19.0275581,47.5446576],[19.0275597,47.5447278],[19.0275153,47.5447282],[19.0275137,47.544658]]]}},
{"type":"Feature","properties":{"id":"way/890998458","natural":"water"},"geometry":{"type":"Polygon","coordinates":[[[19.024989,47.5443567],[19.024981,47.54435],[19.0249791,47.544342],[19.024986,47.5443286],[19.0250515,47.5443293],[19.0250595,47.544336],[19.0250624,47.5443427],[19.0250604,47.5443547],[19.0250495,47.5443581],[19.024989,47.5443567]]]}},
{"type":"Feature","properties":{"id":"way/890998459","natural":"water"},"geometry":{"type":"Polygon","coordinates":[[[19.0255239,47.5441537],[19.0255195,47.5441668],[19.0255046,47.5441703],[19.0254853,47.5441697],[19.0254774,47.5441591],[19.0254748,47.5441147],[19.0254871,47.5441064],[19.0255029,47.5441035],[19.0255169,47.5441064],[19.0255257,47.5441123],[19.0255239,47.5441537]]]}},
{"type":"Feature","properties":{"id":"way/896605608","name":"Duna","name:en":"Danube","waterway":"river"},"geometry":{"type":"LineString","coordinates":[[19.0530465,47.5267806],[19.0518867,47.5248262],[19.049806,47.5213198]]}}
]}
